LEMUR-1                 
1 40044U 14033AL  26199.21561495  .00000705  00000+0  86805-4 0  9995
2 40044  97.7913 348.3393 0047485 337.9146  22.0022 14.85341695650076
LEMUR-2-GREENBERG       
1 42837U 17042N   26199.05111860  .00009701  00000+0  31416-3 0  9991
2 42837  97.3835  19.5561 0007322 247.3182 112.7286 15.32207983493114
LEMUR-2-ANDIS           
1 42838U 17042P   26199.07205633  .00012392  00000+0  35543-3 0  9991
2 42838  97.3688  19.8725 0007324 246.3680 113.6795 15.35996922493194
LEMUR-2-MONSON          
1 42839U 17042Q   26199.45485007  .00007815  00000+0  28173-3 0  9994
2 42839  97.4097  19.8815 0005517 231.1425 128.9323 15.28804140492941
LEMUR-2-FURIAUS         
1 42840U 17042R   26199.45805150  .00009448  00000+0  31589-3 0  9990
2 42840  97.3785  17.8461 0005694 315.3320  44.7462 15.31195052492999
LEMUR-2-PETERG          
1 42841U 17042S   26199.79164351  .00010973  00000+0  32428-3 0  9997
2 42841  97.4000  24.9034 0003567 205.0098 155.0973 15.35108847493286
LEMUR-2-DEMBITZ         
1 42842U 17042T   26199.73925263  .00008375  00000+0  28055-3 0  9993
2 42842  97.3837  21.1724 0005122 257.8927 102.1741 15.31174002493170
LEMUR-2-ZACHARY         
1 42845U 17042W   26199.91869186  .00029231  00000+0  47019-3 0  9992
2 42845  97.3578  32.2917 0002819 227.2948 132.8068 15.52947371494124
LEMUR-2-AMANDA-SVANTE   
1 48269U 21034B   26199.77316791  .00017742  00000+0  50629-3 0  9992
2 48269  97.5742 278.9334 0004767 134.6151 225.5482 15.36094087285901
LEMUR-2-SPECIAL-K       
1 48273U 21034F   26199.19205281  .00182920  00000+0  11691-2 0  9990
2 48273  97.5639 288.5518 0006128 212.7149 147.3737 15.75793092286551
LEMUR-2-EMBRIONOVIS     
1 56970U 23084AQ  26199.88786398  .00007831  00000+0  20963-3 0  9999
2 56970  97.6332 345.3286 0008646 192.5991 167.5039 15.38289291172559
LEMUR-2-DEVERILL-M-T    
1 57391U 23100F   26199.86672932  .00015314  00000+0  37138-3 0  9999
2 57391  99.4446 247.8136 0004780 281.3720  78.6983 15.41202904166121
LEMUR-2-BASS            
1 58259U 23174D   26199.78018773  .00009815  00000+0  21659-3 0  9992
2 58259  97.3840 284.9558 0007428  67.4696 292.7337 15.44067453150235
LEMUR-2-JK0903EM1407    
1 58336U 23174CJ  26199.79136326  .00016516  00000+0  26446-3 0  9999
2 58336  97.3918 291.1881 0003254  18.9836 341.1537 15.53187728150639
LEMUR-2-MJR092620       
1 58340U 23174CN  26199.95022200  .00010810  00000+0  22378-3 0  9998
2 58340  97.3970 290.5895 0004945  16.8270 343.3143 15.45945899150557
LEMUR-2-NIMBUS2000      
1 58899U 24022A   26199.83956378  .00012108  00000+0  29326-3 0  9991
2 58899  97.4079  50.2613 0008365  16.0320 344.1190 15.41208926137144
LEMUR-2-VALHALLA        
1 58900U 24022B   26199.84593804  .00008827  00000+0  21908-3 0  9997
2 58900  97.4078  50.2340 0008843  11.5023 348.6423 15.40554967137140
LEMUR-2-CAEL            
1 58903U 24022E   26199.11444021  .00009726  00000+0  23070-3 0  9997
2 58903  97.4058  50.4848 0006785 358.7316   1.3912 15.41915567137100
LEMUR-2-JOHNNYTRUONG    
1 59146U 24043BA  26199.86792838  .00024814  00000+0  27716-3 0  9990
2 59146  97.5405 353.5944 0003850  84.0742 276.0954 15.62759665132989
LEMUR-2-TOMATOKECHUP    
1 60471U 24149D   26199.76126573  .00005641  00000+0  16003-3 0  9990
2 60471  97.3787 281.9009 0003406 115.5350 244.6247 15.36625314107017
LEMUR-2-STELLA          
1 60533U 24149BT  26199.77882274  .00006185  00000+0  35988-3 0  9994
2 60533  97.6731 282.3852 0001246 124.1125 236.0223 15.12413075105273
LEMUR-2-MARHISYAM       
1 60536U 24149BW  26199.77114108  .00005065  00000+0  30038-3 0  9998
2 60536  97.6874 282.8575 0002281  64.0829 296.0636 15.11816351105259
LEMUR-2-AHMED-ASRAR     
1 60576U 24149DN  26199.77403206  .00006127  00000+0  34740-3 0  9996
2 60576  97.7000 285.0778 0001528 189.1526 170.9677 15.13352101105346
LEMUR-2-LLOYD           
1 60577U 24149DP  26199.79386126  .00004665  00000+0  29276-3 0  9993
2 60577  97.6733 280.9510 0004386  62.6634 297.5041 15.09785247105164
LEMUR-2-SQUIRRELCOMM    
1 60578U 24149DQ  26199.78798889  .00002844  00000+0  19173-3 0  9998
2 60578  97.6700 280.6052 0004020 309.7774  50.3099 15.07465103105164
LEMUR-2-SIERRINI        
1 60579U 24149DR  26199.80065323  .00005353  00000+0  31941-3 0  9997
2 60579  97.6830 282.5451 0006226  81.6935 278.5001 15.11553194105236
LEMUR-2-WILSON          
1 62694U 25009CP  26199.74853368  .00000961  00000+0  92426-4 0  9996
2 62694  97.7017 277.6599 0001728 303.7039  56.4017 14.95282787 82071
LEMUR-2-STAR-FOX        
1 62696U 25009CR  26199.78884717  .00003771  00000+0  28579-3 0  9993
2 62696  97.6898 281.1703 0001822  28.2568 331.8756 15.02867156 82301
LEMUR-2-ARIANNA         
1 62699U 25009CU  26199.78730817  .00004084  00000+0  30905-3 0  9991
2 62699  97.6840 280.9185 0002141  37.2363 322.9011 15.02870725 82301
LEMUR-2-ALISIA          
1 62706U 25009DB  26199.95857888  .00003922  00000+0  29439-3 0  9997
2 62706  97.6963 281.9208 0004755 118.6608 241.5096 15.03206107104933
